{"type":"FeatureCollection","features":[{"type":"Feature","geometry":{"geodesic":false,"type":"Polygon","coordinates":[[[98.43604136089098,4.0293932069181135],[98.43604136089098,4.028674554690818],[98.43622102394781,4.028674554690818],[98.43622102394781,4.028854217747642],[98.43631085547622,4.028854217747642],[98.43631085547622,4.02876438621923],[98.43640068700464,4.02876438621923],[98.43640068700464,4.02921354386129],[98.4361311924194,4.02921354386129],[98.4361311924194,4.0293932069181135],[98.43604136089098,4.0293932069181135]]]},"properties":{"area_ha":0.2289189282022381,"centroid_lon":98.43619954023018,"centroid_lat":4.029000681887155,"mvi_before_mean":2.8189252988284275,"mvi_after_mean":0.6376441059538159,"mvi_delta_mean":-2.1812811928746116,"cmri_before_mean":0.8899749983911929,"cmri_after_mean":0.43926303671753925,"cmri_delta_mean":-0.4507119616736536,"ndvi_before_mean":0.48327816475319735,"ndvi_after_mean":0.20527609159723018,"ndvi_delta_mean":-0.2780020731559672,"ndwi_before_mean":-0.4066968372127585,"ndwi_after_mean":-0.23398694824048008,"ndwi_delta_mean":0.17270988897227835,"priority":"low","validation_status":"detected","hotspot_type":"mangrove_loss_indication","detection_method":"sentinel2_mvi_cmri_change_detection","source":"gee_sentinel2_mvp","aoi_name":"Kwala Serapuh Draft AOI"}},{"type":"Feature","geometry":{"geodesic":false,"type":"Polygon","coordinates":[[[98.43711933923193,4.021038874775802],[98.43711933923193,4.02094904324739],[98.43586169783416,4.02094904324739],[98.43586169783416,4.020679548662154],[98.43559220324893,4.020679548662154],[98.43559220324893,4.020320222548507],[98.43568203477734,4.020320222548507],[98.43568203477734,4.020140559491683],[98.43577186630574,4.020140559491683],[98.43577186630574,4.020230391020094],[98.43595152936257,4.020230391020094],[98.43595152936257,4.020140559491683],[98.43604136089098,4.020140559491683],[98.43604136089098,4.020230391020094],[98.43622102394781,4.020230391020094],[98.43622102394781,4.020140559491683],[98.43631085547622,4.020140559491683],[98.43631085547622,4.020230391020094],[98.43640068700464,4.020230391020094],[98.43640068700464,4.020140559491683],[98.43649051853305,4.020140559491683],[98.43649051853305,4.020230391020094],[98.43729900228875,4.020230391020094],[98.43729900228875,4.020410054076918],[98.43747866534558,4.020410054076918],[98.43747866534558,4.02094904324739],[98.43720917076034,4.02094904324739],[98.43720917076034,4.021038874775802],[98.43711933923193,4.021038874775802]]]},"properties":{"area_ha":1.582543046368234,"centroid_lon":98.43655859831412,"centroid_lat":4.020578135128744,"mvi_before_mean":3.1275432103223832,"mvi_after_mean":0.7892432467654913,"mvi_delta_mean":-2.338299963556891,"cmri_before_mean":1.443822314904171,"cmri_after_mean":0.8693573261207005,"cmri_delta_mean":-0.5744649887834705,"ndvi_before_mean":0.7892601594962197,"ndvi_after_mean":0.42361436879684844,"ndvi_delta_mean":-0.36564579069937125,"ndwi_before_mean":-0.6545621574214198,"ndwi_after_mean":-0.4457429563683567,"ndwi_delta_mean":0.20881920105306298,"priority":"medium","validation_status":"detected","hotspot_type":"mangrove_loss_indication","detection_method":"sentinel2_mvi_cmri_change_detection","source":"gee_sentinel2_mvp","aoi_name":"Kwala Serapuh Draft AOI"}},{"type":"Feature","geometry":{"geodesic":false,"type":"Polygon","coordinates":[[[98.43792782298763,4.0222965161735695],[98.43792782298763,4.022116853116746],[98.43783799145922,4.022116853116746],[98.43783799145922,4.021937190059922],[98.43792782298763,4.021937190059922],[98.43792782298763,4.021308369361038],[98.43828714910128,4.021308369361038],[98.43828714910128,4.021488032417862],[98.4383769806297,4.021488032417862],[98.4383769806297,4.0218473585315095],[98.43828714910128,4.0218473585315095],[98.43828714910128,4.021937190059922],[98.4383769806297,4.021937190059922],[98.4383769806297,4.0222965161735695],[98.43792782298763,4.0222965161735695]]]},"properties":{"area_ha":0.5374665705280411,"centroid_lon":98.43813243930447,"centroid_lat":4.021824069045933,"mvi_before_mean":2.6371556460220393,"mvi_after_mean":0.6858540340886037,"mvi_delta_mean":-1.951301611933436,"cmri_before_mean":1.4223480158381991,"cmri_after_mean":0.9595330633499004,"cmri_delta_mean":-0.4628149524882988,"ndvi_before_mean":0.7911706840536007,"ndvi_after_mean":0.4423019097121711,"ndvi_delta_mean":-0.34886877434142916,"ndwi_before_mean":-0.631177331577465,"ndwi_after_mean":-0.5172311481450308,"ndwi_delta_mean":0.11394618343243433,"priority":"medium","validation_status":"detected","hotspot_type":"mangrove_loss_indication","detection_method":"sentinel2_mvi_cmri_change_detection","source":"gee_sentinel2_mvp","aoi_name":"Kwala Serapuh Draft AOI"}},{"type":"Feature","geometry":{"geodesic":false,"type":"Polygon","coordinates":[[[98.443677040806,4.02876438621923],[98.443677040806,4.028674554690818],[98.44340754622077,4.028674554690818],[98.44340754622077,4.028584723162406],[98.44376687233441,4.028584723162406],[98.44376687233441,4.028494891633994],[98.4435872092776,4.028494891633994],[98.4435872092776,4.028405060105582],[98.443677040806,4.028405060105582],[98.443677040806,4.028315228577171],[98.44376687233441,4.028315228577171],[98.44376687233441,4.028045733991934],[98.44385670386282,4.028045733991934],[98.44385670386282,4.02876438621923],[98.443677040806,4.02876438621923]]]},"properties":{"area_ha":0.15924804792638136,"centroid_lon":98.44372757171294,"centroid_lat":4.028483662997028,"mvi_before_mean":4.200397925488001,"mvi_after_mean":0.7669301609638353,"mvi_delta_mean":-3.4334677645241647,"cmri_before_mean":0.9762815795838833,"cmri_after_mean":0.4485769607126713,"cmri_delta_mean":-0.527704618871212,"ndvi_before_mean":0.5186910874585536,"ndvi_after_mean":0.1801582050654789,"ndvi_delta_mean":-0.33853288239307483,"ndwi_before_mean":-0.45759049574148014,"ndwi_after_mean":-0.26841875514212366,"ndwi_delta_mean":0.18917174059935646,"priority":"medium","validation_status":"detected","hotspot_type":"mangrove_loss_indication","detection_method":"sentinel2_mvi_cmri_change_detection","source":"gee_sentinel2_mvp","aoi_name":"Kwala Serapuh Draft AOI"}},{"type":"Feature","geometry":{"geodesic":false,"type":"Polygon","coordinates":[[[98.44421602997647,4.032627141940944],[98.44421602997647,4.031818658185236],[98.4443956930333,4.031818658185236],[98.4443956930333,4.031908489713648],[98.44448552456171,4.031908489713648],[98.44448552456171,4.032267815827296],[98.4443956930333,4.032267815827296],[98.4443956930333,4.032627141940944],[98.44421602997647,4.032627141940944]]]},"properties":{"area_ha":0.21896506864754378,"centroid_lon":98.44433036117817,"centroid_lat":4.032198400268427,"mvi_before_mean":2.9773440145119547,"mvi_after_mean":0.7244290346674064,"mvi_delta_mean":-2.252914979844549,"cmri_before_mean":1.4482918977737427,"cmri_after_mean":0.9197355264967139,"cmri_delta_mean":-0.5285563712770288,"ndvi_before_mean":0.790122055282701,"ndvi_after_mean":0.4325398612834317,"ndvi_delta_mean":-0.35758219399926927,"ndwi_before_mean":-0.6581698298277804,"ndwi_after_mean":-0.48719565496925893,"ndwi_delta_mean":0.1709741748585215,"priority":"low","validation_status":"detected","hotspot_type":"mangrove_loss_indication","detection_method":"sentinel2_mvi_cmri_change_detection","source":"gee_sentinel2_mvp","aoi_name":"Kwala Serapuh Draft AOI"}},{"type":"Feature","geometry":{"geodesic":false,"type":"Polygon","coordinates":[[[98.44430586150489,4.0315491636],[98.44430586150489,4.031459332071589],[98.44421602997647,4.031459332071589],[98.44421602997647,4.031189837486353],[98.44430586150489,4.031189837486353],[98.44430586150489,4.0309203429011164],[98.44448552456171,4.0309203429011164],[98.44448552456171,4.031010174429529],[98.44466518761853,4.031010174429529],[98.44466518761853,4.031369500543176],[98.44457535609013,4.031369500543176],[98.44457535609013,4.0315491636],[98.44430586150489,4.0315491636]]]},"properties":{"area_ha":0.26873017523050097,"centroid_lon":98.44444393584182,"centroid_lat":4.03124806171364,"mvi_before_mean":2.8917502407484643,"mvi_after_mean":0.746809131696706,"mvi_delta_mean":-2.1449411090517585,"cmri_before_mean":1.4432311764469854,"cmri_after_mean":0.9813614642178571,"cmri_delta_mean":-0.46186971222912826,"ndvi_before_mean":0.7863571752964811,"ndvi_after_mean":0.4367986880033421,"ndvi_delta_mean":-0.349558487293139,"ndwi_before_mean":-0.656874000121038,"ndwi_after_mean":-0.5445627754899549,"ndwi_delta_mean":0.11231122463108313,"priority":"low","validation_status":"detected","hotspot_type":"mangrove_loss_indication","detection_method":"sentinel2_mvi_cmri_change_detection","source":"gee_sentinel2_mvp","aoi_name":"Kwala Serapuh Draft AOI"}},{"type":"Feature","geometry":{"geodesic":false,"type":"Polygon","coordinates":[[[98.44421602997647,4.0289440492760535],[98.44421602997647,4.028854217747642],[98.44412619844806,4.028854217747642],[98.44412619844806,4.02876438621923],[98.44394653539123,4.02876438621923],[98.44394653539123,4.028674554690818],[98.44412619844806,4.028674554690818],[98.44412619844806,4.028584723162406],[98.44421602997647,4.028584723162406],[98.44421602997647,4.028315228577171],[98.44412619844806,4.028315228577171],[98.44412619844806,4.027955902463522],[98.44421602997647,4.027955902463522],[98.44421602997647,4.027776239406698],[98.4443956930333,4.027776239406698],[98.4443956930333,4.028584723162406],[98.44448552456171,4.028584723162406],[98.44448552456171,4.028674554690818],[98.44457535609013,4.028674554690818],[98.44457535609013,4.028584723162406],[98.44466518761853,4.028584723162406],[98.44466518761853,4.028674554690818],[98.44475501914694,4.028674554690818],[98.44475501914694,4.028584723162406],[98.44484485067535,4.028584723162406],[98.44484485067535,4.02876438621923],[98.44511434526059,4.02876438621923],[98.44511434526059,4.028854217747642],[98.44466518761853,4.028854217747642],[98.44466518761853,4.0289440492760535],[98.44421602997647,4.0289440492760535]]]},"properties":{"area_ha":0.5374621554385756,"centroid_lon":98.44440401037308,"centroid_lat":4.0285215084248875,"mvi_before_mean":3.1455631369286814,"mvi_after_mean":0.9630844169713598,"mvi_delta_mean":-2.1824787199573215,"cmri_before_mean":1.186842166715198,"cmri_after_mean":0.6048112580621684,"cmri_delta_mean":-0.5820309086530296,"ndvi_before_mean":0.633365484235014,"ndvi_after_mean":0.2692554932395597,"ndvi_delta_mean":-0.36410999099545444,"ndwi_before_mean":-0.5534766853329313,"ndwi_after_mean":-0.33555576297148104,"ndwi_delta_mean":0.21792092236144994,"priority":"medium","validation_status":"detected","hotspot_type":"mangrove_loss_indication","detection_method":"sentinel2_mvi_cmri_change_detection","source":"gee_sentinel2_mvp","aoi_name":"Kwala Serapuh Draft AOI"}},{"type":"Feature","geometry":{"geodesic":false,"type":"Polygon","coordinates":[[[98.44466518761853,4.02418297827022],[98.44466518761853,4.024093146741809],[98.44475501914694,4.024093146741809],[98.44475501914694,4.024003315213396],[98.44466518761853,4.024003315213396],[98.44466518761853,4.023913483684985],[98.44457535609013,4.023913483684985],[98.44457535609013,4.024003315213396],[98.44448552456171,4.024003315213396],[98.44448552456171,4.0238236521565725],[98.44466518761853,4.0238236521565725],[98.44466518761853,4.023733820628161],[98.44475501914694,4.023733820628161],[98.44475501914694,4.023464326042925],[98.44493468220377,4.023464326042925],[98.44493468220377,4.023554157571337],[98.44484485067535,4.023554157571337],[98.44484485067535,4.023643989099749],[98.44493468220377,4.023643989099749],[98.44493468220377,4.023913483684985],[98.44484485067535,4.023913483684985],[98.44484485067535,4.024003315213396],[98.44493468220377,4.024003315213396],[98.44493468220377,4.024093146741809],[98.44484485067535,4.024093146741809],[98.44484485067535,4.02418297827022],[98.44466518761853,4.02418297827022]]]},"properties":{"area_ha":0.19906119616032794,"centroid_lon":98.44476849341535,"centroid_lat":4.023846109370844,"mvi_before_mean":4.815788899347796,"mvi_after_mean":0.5841352531759181,"mvi_delta_mean":-4.231653646171878,"cmri_before_mean":1.1503514617681503,"cmri_after_mean":0.5642156135290861,"cmri_delta_mean":-0.5861358482390642,"ndvi_before_mean":0.6395212759685224,"ndvi_after_mean":0.2886508548564144,"ndvi_delta_mean":-0.3508704211121082,"ndwi_before_mean":-0.5108301882461574,"ndwi_after_mean":-0.27556476176724026,"ndwi_delta_mean":0.23526542647891713,"priority":"medium","validation_status":"detected","hotspot_type":"mangrove_loss_indication","detection_method":"sentinel2_mvi_cmri_change_detection","source":"gee_sentinel2_mvp","aoi_name":"Kwala Serapuh Draft AOI"}},{"type":"Feature","geometry":{"geodesic":false,"type":"Polygon","coordinates":[[[98.44511434526059,4.02418297827022],[98.44511434526059,4.023554157571337],[98.44556350290266,4.023554157571337],[98.44556350290266,4.023643989099749],[98.44538383984583,4.023643989099749],[98.44538383984583,4.023733820628161],[98.44529400831742,4.023733820628161],[98.44529400831742,4.02418297827022],[98.44511434526059,4.02418297827022]]]},"properties":{"area_ha":0.17915507433715758,"centroid_lon":98.44524909227404,"centroid_lat":4.02381367130416,"mvi_before_mean":16.267945679198206,"mvi_after_mean":2.2601984647732403,"mvi_delta_mean":-14.00774721442496,"cmri_before_mean":1.1813301179144118,"cmri_after_mean":0.6841403279039595,"cmri_delta_mean":-0.49718979001045227,"ndvi_before_mean":0.6657874673247579,"ndvi_after_mean":0.33446884996783655,"ndvi_delta_mean":-0.33131861735692136,"ndwi_before_mean":-0.5155426560980909,"ndwi_after_mean":-0.3496714823427507,"ndwi_delta_mean":0.16587117375534016,"priority":"medium","validation_status":"detected","hotspot_type":"mangrove_loss_indication","detection_method":"sentinel2_mvi_cmri_change_detection","source":"gee_sentinel2_mvp","aoi_name":"Kwala Serapuh Draft AOI"}},{"type":"Feature","geometry":{"geodesic":false,"type":"MultiPolygon","coordinates":[[[[98.4511330576642,4.005587851888946],[98.4511330576642,4.005498020360535],[98.45104322613578,4.005498020360535],[98.45104322613578,4.005318357303711],[98.45086356307897,4.005318357303711],[98.45086356307897,4.005228525775299],[98.45104322613578,4.005228525775299],[98.45104322613578,4.005138694246887],[98.45086356307897,4.005138694246887],[98.45086356307897,4.005048862718475],[98.45077373155056,4.005048862718475],[98.45077373155056,4.0049590311900625],[98.45122288919261,4.0049590311900625],[98.45122288919261,4.005138694246887],[98.4511330576642,4.005138694246887],[98.4511330576642,4.005228525775299],[98.45122288919261,4.005228525775299],[98.45122288919261,4.005318357303711],[98.45131272072102,4.005318357303711],[98.45131272072102,4.0054081888321225],[98.45149238377785,4.0054081888321225],[98.45149238377785,4.005498020360535],[98.45131272072102,4.005498020360535],[98.45131272072102,4.005587851888946],[98.4511330576642,4.005587851888946]]],[[[98.45104322613578,4.005587851888946],[98.4511330576642,4.005587851888946],[98.4511330576642,4.005677683417359],[98.45104322613578,4.005677683417359],[98.45104322613578,4.005587851888946]]]]},"properties":{"area_ha":0.24883214802426987,"centroid_lon":98.451113294891,"centroid_lat":4.0052698475787425,"mvi_before_mean":19.783804506465128,"mvi_after_mean":-0.26135818006473993,"mvi_delta_mean":-20.04516268652987,"cmri_before_mean":0.9757258376247901,"cmri_after_mean":-0.0037805368989030437,"cmri_delta_mean":-0.979506374523693,"ndvi_before_mean":0.537614709494243,"ndvi_after_mean":0.0959702863625147,"ndvi_delta_mean":-0.44164442313172836,"ndwi_before_mean":-0.43811112725755613,"ndwi_after_mean":0.09975082593047715,"ndwi_delta_mean":0.5378619531880333,"priority":"medium","validation_status":"detected","hotspot_type":"mangrove_loss_indication","detection_method":"sentinel2_mvi_cmri_change_detection","source":"gee_sentinel2_mvp","aoi_name":"Kwala Serapuh Draft AOI"}},{"type":"Feature","geometry":{"geodesic":false,"type":"MultiPolygon","coordinates":[[[[98.4564331178405,4.024901630497516],[98.4564331178405,4.024811798969104],[98.45634328631209,4.024811798969104],[98.45634328631209,4.024721967440692],[98.45625345478368,4.024721967440692],[98.45625345478368,4.02463213591228],[98.45652294936892,4.02463213591228],[98.45652294936892,4.024901630497516],[98.4564331178405,4.024901630497516]]],[[[98.4564331178405,4.024901630497516],[98.4564331178405,4.02508129355434],[98.45634328631209,4.02508129355434],[98.45634328631209,4.024991462025929],[98.45625345478368,4.024991462025929],[98.45625345478368,4.025171125082752],[98.45616362325526,4.025171125082752],[98.45616362325526,4.025260956611164],[98.45598396019844,4.025260956611164],[98.45598396019844,4.02508129355434],[98.45607379172685,4.02508129355434],[98.45607379172685,4.024991462025929],[98.45616362325526,4.024991462025929],[98.45616362325526,4.024901630497516],[98.4564331178405,4.024901630497516]]]]},"properties":{"area_ha":0.1692017836407347,"centroid_lon":98.45627194850492,"centroid_lat":4.024951831119914,"mvi_before_mean":3.904902847618744,"mvi_after_mean":-1.0758433409369126,"mvi_delta_mean":-4.980746188555657,"cmri_before_mean":0.6741195005529067,"cmri_after_mean":-0.06292749099049937,"cmri_delta_mean":-0.737046991543406,"ndvi_before_mean":0.3533075329836206,"ndvi_after_mean":0.010135124896842408,"ndvi_delta_mean":-0.3431724080867782,"ndwi_before_mean":-0.32081196755304525,"ndwi_after_mean":0.07306261408633524,"ndwi_delta_mean":0.39387458163938044,"priority":"medium","validation_status":"detected","hotspot_type":"mangrove_loss_indication","detection_method":"sentinel2_mvi_cmri_change_detection","source":"gee_sentinel2_mvp","aoi_name":"Kwala Serapuh Draft AOI"}},{"type":"Feature","geometry":{"geodesic":false,"type":"Polygon","coordinates":[[[98.45805008535191,4.012325216519843],[98.45805008535191,4.012235384991431],[98.4579602538235,4.012235384991431],[98.4579602538235,4.012145553463019],[98.45787042229509,4.012145553463019],[98.45787042229509,4.0120557219346065],[98.45778059076667,4.0120557219346065],[98.45778059076667,4.011965890406195],[98.45769075923826,4.011965890406195],[98.45769075923826,4.011876058877783],[98.45760092770985,4.011876058877783],[98.45760092770985,4.011516732764135],[98.45778059076667,4.011516732764135],[98.45778059076667,4.011606564292547],[98.45787042229509,4.011606564292547],[98.45787042229509,4.011696395820959],[98.4579602538235,4.011696395820959],[98.4579602538235,4.011786227349371],[98.45805008535191,4.011786227349371],[98.45805008535191,4.011876058877783],[98.45813991688033,4.011876058877783],[98.45813991688033,4.011965890406195],[98.45822974840874,4.011965890406195],[98.45822974840874,4.0120557219346065],[98.45831957993715,4.0120557219346065],[98.45831957993715,4.012235384991431],[98.45822974840874,4.012235384991431],[98.45822974840874,4.012145553463019],[98.45813991688033,4.012145553463019],[98.45813991688033,4.012325216519843],[98.45805008535191,4.012325216519843]]]},"properties":{"area_ha":0.32845577799116515,"centroid_lon":98.45792078209944,"centroid_lat":4.011915530652826,"mvi_before_mean":2.6476800433242293,"mvi_after_mean":0.5625925578861374,"mvi_delta_mean":-2.085087485438092,"cmri_before_mean":1.4467353784676753,"cmri_after_mean":0.9535571625738433,"cmri_delta_mean":-0.4931782158938321,"ndvi_before_mean":0.75966412113627,"ndvi_after_mean":0.47096411333178845,"ndvi_delta_mean":-0.2887000078044817,"ndwi_before_mean":-0.6870712556183265,"ndwi_after_mean":-0.48259304534558434,"ndwi_delta_mean":0.20447821027274218,"priority":"low","validation_status":"detected","hotspot_type":"mangrove_loss_indication","detection_method":"sentinel2_mvi_cmri_change_detection","source":"gee_sentinel2_mvp","aoi_name":"Kwala Serapuh Draft AOI"}},{"type":"Feature","geometry":{"geodesic":false,"type":"Polygon","coordinates":[[[98.45840941146557,4.0120557219346065],[98.45840941146557,4.011965890406195],[98.45831957993715,4.011965890406195],[98.45831957993715,4.011876058877783],[98.45840941146557,4.011876058877783],[98.45840941146557,4.011696395820959],[98.45831957993715,4.011696395820959],[98.45831957993715,4.011606564292547],[98.45822974840874,4.011606564292547],[98.45822974840874,4.011696395820959],[98.45805008535191,4.011696395820959],[98.45805008535191,4.011606564292547],[98.4579602538235,4.011606564292547],[98.4579602538235,4.011516732764135],[98.45787042229509,4.011516732764135],[98.45787042229509,4.011337069707311],[98.4579602538235,4.011337069707311],[98.4579602538235,4.0112472381789],[98.45813991688033,4.0112472381789],[98.45813991688033,4.011337069707311],[98.45822974840874,4.011337069707311],[98.45822974840874,4.0114269012357235],[98.45831957993715,4.0114269012357235],[98.45831957993715,4.011516732764135],[98.45840941146557,4.011516732764135],[98.45840941146557,4.011606564292547],[98.45849924299397,4.011606564292547],[98.45849924299397,4.011696395820959],[98.45858907452238,4.011696395820959],[98.45858907452238,4.011786227349371],[98.45867890605079,4.011786227349371],[98.45867890605079,4.011876058877783],[98.45858907452238,4.011876058877783],[98.45858907452238,4.011965890406195],[98.45849924299397,4.011965890406195],[98.45849924299397,4.0120557219346065],[98.45840941146557,4.0120557219346065]]]},"properties":{"area_ha":0.2886430655022477,"centroid_lon":98.45824988330561,"centroid_lat":4.011608113224191,"mvi_before_mean":3.056292137144553,"mvi_after_mean":0.7481163275171746,"mvi_delta_mean":-2.3081758096273797,"cmri_before_mean":1.4511534345561061,"cmri_after_mean":0.9638141475874802,"cmri_delta_mean":-0.48733928696862583,"ndvi_before_mean":0.7747451127669277,"ndvi_after_mean":0.48242947462054664,"ndvi_delta_mean":-0.292315638146381,"ndwi_before_mean":-0.6764083286864789,"ndwi_after_mean":-0.481384664358877,"ndwi_delta_mean":0.19502366432760174,"priority":"low","validation_status":"detected","hotspot_type":"mangrove_loss_indication","detection_method":"sentinel2_mvi_cmri_change_detection","source":"gee_sentinel2_mvp","aoi_name":"Kwala Serapuh Draft AOI"}},{"type":"Feature","geometry":{"geodesic":false,"type":"Polygon","coordinates":[[[98.46218233565887,4.0162778037699685],[98.46218233565887,4.016187972241557],[98.46182300954521,4.016187972241557],[98.46182300954521,4.016008309184733],[98.46164334648839,4.016008309184733],[98.46164334648839,4.015918477656321],[98.4617331780168,4.015918477656321],[98.4617331780168,4.015738814599497],[98.46182300954521,4.015738814599497],[98.46182300954521,4.015648983071085],[98.46209250413045,4.015648983071085],[98.46209250413045,4.015559151542673],[98.46227216718728,4.015559151542673],[98.46227216718728,4.015648983071085],[98.46263149330092,4.015648983071085],[98.46263149330092,4.015738814599497],[98.46290098788616,4.015738814599497],[98.46290098788616,4.0158286461279085],[98.46299081941457,4.0158286461279085],[98.46299081941457,4.015918477656321],[98.46290098788616,4.015918477656321],[98.46290098788616,4.016098140713145],[98.4625416617725,4.016098140713145],[98.4625416617725,4.0162778037699685],[98.46218233565887,4.0162778037699685]]]},"properties":{"area_ha":0.7564399059870149,"centroid_lon":98.46229817102905,"centroid_lat":4.0159220238569615,"mvi_before_mean":2.9246843583756306,"mvi_after_mean":0.7266718383304529,"mvi_delta_mean":-2.198012520045177,"cmri_before_mean":1.5382458849957115,"cmri_after_mean":0.9948543137625644,"cmri_delta_mean":-0.5433915712331471,"ndvi_before_mean":0.8350539011763853,"ndvi_after_mean":0.4503603502528114,"ndvi_delta_mean":-0.38469355092357443,"ndwi_before_mean":-0.7031919816632819,"ndwi_after_mean":-0.5444939642218355,"ndwi_delta_mean":0.1586980174414464,"priority":"medium","validation_status":"detected","hotspot_type":"mangrove_loss_indication","detection_method":"sentinel2_mvi_cmri_change_detection","source":"gee_sentinel2_mvp","aoi_name":"Kwala Serapuh Draft AOI"}},{"type":"Feature","geometry":{"geodesic":false,"type":"MultiPolygon","coordinates":[[[[98.46685357513628,4.00621667258783],[98.4669434066647,4.00621667258783],[98.4669434066647,4.0063065041162425],[98.46685357513628,4.0063065041162425],[98.46685357513628,4.00621667258783]]],[[[98.46685357513628,4.00621667258783],[98.46658408055106,4.00621667258783],[98.46658408055106,4.0063065041162425],[98.46649424902265,4.0063065041162425],[98.46649424902265,4.00666583022989],[98.46631458596582,4.00666583022989],[98.46631458596582,4.006575998701478],[98.46613492290899,4.006575998701478],[98.46613492290899,4.006486167173066],[98.4662247544374,4.006486167173066],[98.4662247544374,4.00621667258783],[98.46631458596582,4.00621667258783],[98.46631458596582,4.006037009531006],[98.46667391207947,4.006037009531006],[98.46667391207947,4.006126841059419],[98.46685357513628,4.006126841059419],[98.46685357513628,4.00621667258783]]]]},"properties":{"area_ha":0.26873838556843926,"centroid_lon":98.4664526596186,"centroid_lat":4.006311493960112,"mvi_before_mean":10.699843171781826,"mvi_after_mean":-4.002797247365778,"mvi_delta_mean":-14.702640419147608,"cmri_before_mean":1.0250889007691983,"cmri_after_mean":0.19923228501445717,"cmri_delta_mean":-0.8258566157547412,"ndvi_before_mean":0.5779544098171336,"ndvi_after_mean":0.13130578383434682,"ndvi_delta_mean":-0.4466486259827869,"ndwi_before_mean":-0.44713449460584376,"ndwi_after_mean":-0.06792649905383998,"ndwi_delta_mean":0.3792079955520037,"priority":"medium","validation_status":"detected","hotspot_type":"mangrove_loss_indication","detection_method":"sentinel2_mvi_cmri_change_detection","source":"gee_sentinel2_mvp","aoi_name":"Kwala Serapuh Draft AOI"}},{"type":"Feature","geometry":{"geodesic":false,"type":"MultiPolygon","coordinates":[[[[98.46631458596582,4.007025156343538],[98.46658408055106,4.007025156343538],[98.46658408055106,4.00711498787195],[98.46676374360788,4.00711498787195],[98.46676374360788,4.007025156343538],[98.46685357513628,4.007025156343538],[98.46685357513628,4.0072048194003616],[98.46676374360788,4.0072048194003616],[98.46676374360788,4.007294650928774],[98.46667391207947,4.007294650928774],[98.46667391207947,4.0072048194003616],[98.46649424902265,4.0072048194003616],[98.46649424902265,4.007384482457185],[98.46640441749423,4.007384482457185],[98.46640441749423,4.0072048194003616],[98.4662247544374,4.0072048194003616],[98.4662247544374,4.00711498787195],[98.46631458596582,4.00711498787195],[98.46631458596582,4.007025156343538]]],[[[98.46613492290899,4.006935324815126],[98.46631458596582,4.006935324815126],[98.46631458596582,4.007025156343538],[98.46613492290899,4.007025156343538],[98.46613492290899,4.006935324815126]]]]},"properties":{"area_ha":0.15925221581294383,"centroid_lon":98.4664998633402,"centroid_lat":4.007137444962756,"mvi_before_mean":7.129496017372988,"mvi_after_mean":2.135847595298579,"mvi_delta_mean":-4.993648422074408,"cmri_before_mean":1.0461986921727657,"cmri_after_mean":0.5727242985740304,"cmri_delta_mean":-0.47347439359873533,"ndvi_before_mean":0.5833960219461192,"ndvi_after_mean":0.28509360763036906,"ndvi_delta_mean":-0.2983024143157501,"ndwi_before_mean":-0.46280267874428477,"ndwi_after_mean":-0.2876306790501705,"ndwi_delta_mean":0.17517199969411418,"priority":"medium","validation_status":"detected","hotspot_type":"mangrove_loss_indication","detection_method":"sentinel2_mvi_cmri_change_detection","source":"gee_sentinel2_mvp","aoi_name":"Kwala Serapuh Draft AOI"}}]}